SXM-10                  
1 64290U 25122A   26064.15947523 -.00000025  00000+0  00000+0 0  9993
2 64290   0.0247  67.2363 0002848 299.6621  97.2175  1.00270923  2647
INTELSAT 33E DEB        
1 64394U 16053Y   26064.86681508 -.00000183  00000+0  00000+0 0  9992
2 64394   1.1501  38.2941 0627655 339.8011  18.6397  1.08356960  5321
INTELSAT 33E DEB        
1 64395U 16053Z   26064.93268039 -.00000228  00000+0  00000+0 0  9991
2 64395   2.1372 116.2453 0086126 205.7899 154.2537  0.99834274  4893
INTELSAT 33E DEB        
1 64396U 16053AA  26064.95260634 -.00000250  00000+0  00000+0 0  9992
2 64396   1.3073  83.6036 0110377  58.0033 304.1108  0.98614692  4969
INTELSAT 33E DEB        
1 64397U 16053AB  26065.63216405  .00000117  00000+0  00000+0 0  9997
2 64397   1.2750  81.2661 0047110  91.4212 270.1652  0.99468535  4884
INTELSAT 33E DEB        
1 64398U 16053AC  26055.09246179  .00000021  00000+0  00000+0 0  9992
2 64398   1.1692  47.8448 0198390 317.0627  42.1986  1.00972481  4873
INTELSAT 33E DEB        
1 64399U 16053AD  26056.84607028 -.00000303  00000+0  00000+0 0  9995
2 64399   1.3084  58.8286 0520584 324.9740  32.3647  0.98863655  4727
INTELSAT 33E DEB        
1 64400U 16053AE  26065.14168257 -.00000186  00000+0  00000+0 0  9996
2 64400   1.2194  81.9636 0486696 306.7151  49.9067  1.03350324  5098
INTELSAT 33E DEB        
1 64401U 16053AF  26050.73892810 -.00000058  00000+0  00000+0 0  9993
2 64401   1.1047  72.8646 0700758 295.6650  58.1706  1.05810450  5065
INTELSAT 33E DEB        
1 64402U 16053AG  26065.23519305 -.00000178  00000+0  00000+0 0  9993
2 64402   1.2447  75.1171 0120852 102.4356 260.0498  0.98356316  4854
INTELSAT 33E DEB        
1 64403U 16053AH  26065.30370890 -.00000105  00000+0  00000+0 0  9996
2 64403   1.1729  63.6063 0062840 335.6994  25.1347  1.00711234  4928
INTELSAT 33E DEB        
1 64404U 16053AJ  26065.55293662  .00000041  00000+0  00000+0 0  9993
2 64404   1.1839  57.4078 0106990  25.9325 335.6754  0.99864611  4881
INTELSAT 33E DEB        
1 64405U 16053AK  26065.51226198 -.00000218  00000+0  00000+0 0  9997
2 64405   1.4622  95.7165 0064046   9.9448 351.0287  0.99502162  4883
INTELSAT 33E DEB        
1 64406U 16053AL  26064.53325396 -.00000024  00000+0  00000+0 0  9994
2 64406   1.2071  68.6667 0127575  43.8263 318.3505  0.98884741  4812
INTELSAT 33E DEB        
1 64408U 16053AN  26064.88785599 -.00000125  00000+0  00000+0 0  9991
2 64408   2.1319  99.2755 1661822 274.9142  66.9174  1.03175402  5014
INTELSAT 33E DEB        
1 64409U 16053AP  26065.64416541  .00000109  00000+0  00000+0 0  9996
2 64409   1.2596  79.3605 0052440  77.3166 284.3298  0.99466355  4842
INTELSAT 33E DEB        
1 64410U 16053AQ  26063.94808383 -.00000236  00000+0  00000+0 0  9990
2 64410   1.1932  69.3373 0064525 349.8636  11.2060  0.99991933  4843
