[{"OBJECT_NAME":"SXM-10","OBJECT_ID":"2025-122A","EPOCH":"2026-03-05T03:49:38.659872","MEAN_MOTION":1.00270923,"ECCENTRICITY":0.00028481,"INCLINATION":0.0247,"RA_OF_ASC_NODE":67.2363,"ARG_OF_PERICENTER":299.6621,"MEAN_ANOMALY":97.2175,"EPHEMERIS_TYPE":0,"CLASSIFICATION_TYPE":"U","NORAD_CAT_ID":64290,"ELEMENT_SET_NO":999,"REV_AT_EPOCH":264,"BSTAR":0,"MEAN_MOTION_DOT":-2.5e-7,"MEAN_MOTION_DDOT":0},{"OBJECT_NAME":"INTELSAT 33E DEB","OBJECT_ID":"2016-053Y","EPOCH":"2026-03-05T20:48:12.822912","MEAN_MOTION":1.0835696,"ECCENTRICITY":0.06276553,"INCLINATION":1.1501,"RA_OF_ASC_NODE":38.2941,"ARG_OF_PERICENTER":339.8011,"MEAN_ANOMALY":18.6397,"EPHEMERIS_TYPE":0,"CLASSIFICATION_TYPE":"U","NORAD_CAT_ID":64394,"ELEMENT_SET_NO":999,"REV_AT_EPOCH":532,"BSTAR":0,"MEAN_MOTION_DOT":-1.83e-6,"MEAN_MOTION_DDOT":0},{"OBJECT_NAME":"INTELSAT 33E DEB","OBJECT_ID":"2016-053Z","EPOCH":"2026-03-05T22:23:03.585696","MEAN_MOTION":0.99834274,"ECCENTRICITY":0.00861266,"INCLINATION":2.1372,"RA_OF_ASC_NODE":116.2453,"ARG_OF_PERICENTER":205.7899,"MEAN_ANOMALY":154.2537,"EPHEMERIS_TYPE":0,"CLASSIFICATION_TYPE":"U","NORAD_CAT_ID":64395,"ELEMENT_SET_NO":999,"REV_AT_EPOCH":489,"BSTAR":0,"MEAN_MOTION_DOT":-2.28e-6,"MEAN_MOTION_DDOT":0},{"OBJECT_NAME":"INTELSAT 33E DEB","OBJECT_ID":"2016-053AA","EPOCH":"2026-03-05T22:51:45.187776","MEAN_MOTION":0.98614692,"ECCENTRICITY":0.01103772,"INCLINATION":1.3073,"RA_OF_ASC_NODE":83.6036,"ARG_OF_PERICENTER":58.0033,"MEAN_ANOMALY":304.1108,"EPHEMERIS_TYPE":0,"CLASSIFICATION_TYPE":"U","NORAD_CAT_ID":64396,"ELEMENT_SET_NO":999,"REV_AT_EPOCH":496,"BSTAR":0,"MEAN_MOTION_DOT":-2.5e-6,"MEAN_MOTION_DDOT":0},{"OBJECT_NAME":"INTELSAT 33E DEB","OBJECT_ID":"2016-053AB","EPOCH":"2026-03-06T15:10:18.973920","MEAN_MOTION":0.99468535,"ECCENTRICITY":0.004711,"INCLINATION":1.275,"RA_OF_ASC_NODE":81.2661,"ARG_OF_PERICENTER":91.4212,"MEAN_ANOMALY":270.1652,"EPHEMERIS_TYPE":0,"CLASSIFICATION_TYPE":"U","NORAD_CAT_ID":64397,"ELEMENT_SET_NO":999,"REV_AT_EPOCH":488,"BSTAR":0,"MEAN_MOTION_DOT":1.17e-6,"MEAN_MOTION_DDOT":0},{"OBJECT_NAME":"INTELSAT 33E DEB","OBJECT_ID":"2016-053AC","EPOCH":"2026-02-24T02:13:08.698656","MEAN_MOTION":1.00972481,"ECCENTRICITY":0.01983908,"INCLINATION":1.1692,"RA_OF_ASC_NODE":47.8448,"ARG_OF_PERICENTER":317.0627,"MEAN_ANOMALY":42.1986,"EPHEMERIS_TYPE":0,"CLASSIFICATION_TYPE":"U","NORAD_CAT_ID":64398,"ELEMENT_SET_NO":999,"REV_AT_EPOCH":487,"BSTAR":0,"MEAN_MOTION_DOT":2.1e-7,"MEAN_MOTION_DDOT":0},{"OBJECT_NAME":"INTELSAT 33E DEB","OBJECT_ID":"2016-053AD","EPOCH":"2026-02-25T20:18:20.472192","MEAN_MOTION":0.98863655,"ECCENTRICITY":0.05205843,"INCLINATION":1.3084,"RA_OF_ASC_NODE":58.8286,"ARG_OF_PERICENTER":324.974,"MEAN_ANOMALY":32.3647,"EPHEMERIS_TYPE":0,"CLASSIFICATION_TYPE":"U","NORAD_CAT_ID":64399,"ELEMENT_SET_NO":999,"REV_AT_EPOCH":472,"BSTAR":0,"MEAN_MOTION_DOT":-3.03e-6,"MEAN_MOTION_DDOT":0},{"OBJECT_NAME":"INTELSAT 33E DEB","OBJECT_ID":"2016-053AE","EPOCH":"2026-03-06T03:24:01.374048","MEAN_MOTION":1.03350324,"ECCENTRICITY":0.04866963,"INCLINATION":1.2194,"RA_OF_ASC_NODE":81.9636,"ARG_OF_PERICENTER":306.7151,"MEAN_ANOMALY":49.9067,"EPHEMERIS_TYPE":0,"CLASSIFICATION_TYPE":"U","NORAD_CAT_ID":64400,"ELEMENT_SET_NO":999,"REV_AT_EPOCH":509,"BSTAR":0,"MEAN_MOTION_DOT":-1.86e-6,"MEAN_MOTION_DDOT":0},{"OBJECT_NAME":"INTELSAT 33E DEB","OBJECT_ID":"2016-053AF","EPOCH":"2026-02-19T17:44:03.387840","MEAN_MOTION":1.0581045,"ECCENTRICITY":0.07007585,"INCLINATION":1.1047,"RA_OF_ASC_NODE":72.8646,"ARG_OF_PERICENTER":295.665,"MEAN_ANOMALY":58.1706,"EPHEMERIS_TYPE":0,"CLASSIFICATION_TYPE":"U","NORAD_CAT_ID":64401,"ELEMENT_SET_NO":999,"REV_AT_EPOCH":506,"BSTAR":0,"MEAN_MOTION_DOT":-5.8e-7,"MEAN_MOTION_DDOT":0},{"OBJECT_NAME":"INTELSAT 33E DEB","OBJECT_ID":"2016-053AG","EPOCH":"2026-03-06T05:38:40.679520","MEAN_MOTION":0.98356316,"ECCENTRICITY":0.01208529,"INCLINATION":1.2447,"RA_OF_ASC_NODE":75.1171,"ARG_OF_PERICENTER":102.4356,"MEAN_ANOMALY":260.0498,"EPHEMERIS_TYPE":0,"CLASSIFICATION_TYPE":"U","NORAD_CAT_ID":64402,"ELEMENT_SET_NO":999,"REV_AT_EPOCH":485,"BSTAR":0,"MEAN_MOTION_DOT":-1.78e-6,"MEAN_MOTION_DDOT":0},{"OBJECT_NAME":"INTELSAT 33E DEB","OBJECT_ID":"2016-053AH","EPOCH":"2026-03-06T07:17:20.448960","MEAN_MOTION":1.00711234,"ECCENTRICITY":0.00628403,"INCLINATION":1.1729,"RA_OF_ASC_NODE":63.6063,"ARG_OF_PERICENTER":335.6994,"MEAN_ANOMALY":25.1347,"EPHEMERIS_TYPE":0,"CLASSIFICATION_TYPE":"U","NORAD_CAT_ID":64403,"ELEMENT_SET_NO":999,"REV_AT_EPOCH":492,"BSTAR":0,"MEAN_MOTION_DOT":-1.05e-6,"MEAN_MOTION_DDOT":0},{"OBJECT_NAME":"INTELSAT 33E DEB","OBJECT_ID":"2016-053AJ","EPOCH":"2026-03-06T13:16:13.723968","MEAN_MOTION":0.99864611,"ECCENTRICITY":0.010699,"INCLINATION":1.1839,"RA_OF_ASC_NODE":57.4078,"ARG_OF_PERICENTER":25.9325,"MEAN_ANOMALY":335.6754,"EPHEMERIS_TYPE":0,"CLASSIFICATION_TYPE":"U","NORAD_CAT_ID":64404,"ELEMENT_SET_NO":999,"REV_AT_EPOCH":488,"BSTAR":0,"MEAN_MOTION_DOT":4.1e-7,"MEAN_MOTION_DDOT":0},{"OBJECT_NAME":"INTELSAT 33E DEB","OBJECT_ID":"2016-053AK","EPOCH":"2026-03-06T12:17:39.435072","MEAN_MOTION":0.99502162,"ECCENTRICITY":0.00640464,"INCLINATION":1.4622,"RA_OF_ASC_NODE":95.7165,"ARG_OF_PERICENTER":9.9448,"MEAN_ANOMALY":351.0287,"EPHEMERIS_TYPE":0,"CLASSIFICATION_TYPE":"U","NORAD_CAT_ID":64405,"ELEMENT_SET_NO":999,"REV_AT_EPOCH":488,"BSTAR":0,"MEAN_MOTION_DOT":-2.18e-6,"MEAN_MOTION_DDOT":0},{"OBJECT_NAME":"INTELSAT 33E DEB","OBJECT_ID":"2016-053AL","EPOCH":"2026-03-05T12:47:53.142144","MEAN_MOTION":0.98884741,"ECCENTRICITY":0.01275759,"INCLINATION":1.2071,"RA_OF_ASC_NODE":68.6667,"ARG_OF_PERICENTER":43.8263,"MEAN_ANOMALY":318.3505,"EPHEMERIS_TYPE":0,"CLASSIFICATION_TYPE":"U","NORAD_CAT_ID":64406,"ELEMENT_SET_NO":999,"REV_AT_EPOCH":481,"BSTAR":0,"MEAN_MOTION_DOT":-2.4e-7,"MEAN_MOTION_DDOT":0},{"OBJECT_NAME":"INTELSAT 33E DEB","OBJECT_ID":"2016-053AN","EPOCH":"2026-03-05T21:18:30.757536","MEAN_MOTION":1.03175402,"ECCENTRICITY":0.16618227,"INCLINATION":2.1319,"RA_OF_ASC_NODE":99.2755,"ARG_OF_PERICENTER":274.9142,"MEAN_ANOMALY":66.9174,"EPHEMERIS_TYPE":0,"CLASSIFICATION_TYPE":"U","NORAD_CAT_ID":64408,"ELEMENT_SET_NO":999,"REV_AT_EPOCH":501,"BSTAR":0,"MEAN_MOTION_DOT":-1.25e-6,"MEAN_MOTION_DDOT":0},{"OBJECT_NAME":"INTELSAT 33E DEB","OBJECT_ID":"2016-053AP","EPOCH":"2026-03-06T15:27:35.891424","MEAN_MOTION":0.99466355,"ECCENTRICITY":0.005244,"INCLINATION":1.2596,"RA_OF_ASC_NODE":79.3605,"ARG_OF_PERICENTER":77.3166,"MEAN_ANOMALY":284.3298,"EPHEMERIS_TYPE":0,"CLASSIFICATION_TYPE":"U","NORAD_CAT_ID":64409,"ELEMENT_SET_NO":999,"REV_AT_EPOCH":484,"BSTAR":0,"MEAN_MOTION_DOT":1.09e-6,"MEAN_MOTION_DDOT":0},{"OBJECT_NAME":"INTELSAT 33E DEB","OBJECT_ID":"2016-053AQ","EPOCH":"2026-03-04T22:45:14.442912","MEAN_MOTION":0.99991933,"ECCENTRICITY":0.00645255,"INCLINATION":1.1932,"RA_OF_ASC_NODE":69.3373,"ARG_OF_PERICENTER":349.8636,"MEAN_ANOMALY":11.206,"EPHEMERIS_TYPE":0,"CLASSIFICATION_TYPE":"U","NORAD_CAT_ID":64410,"ELEMENT_SET_NO":999,"REV_AT_EPOCH":484,"BSTAR":0,"MEAN_MOTION_DOT":-2.36e-6,"MEAN_MOTION_DDOT":0}]
